MEAN_MOTION;ECCENTRICITY;INCLINATION;RA_OF_ASC_NODE;ARG_OF_PERICENTER;MEAN_ANOMALY;BSTAR;MEAN_MOTION_DOT;MEAN_MOTION_DDOT;TYPE
14.43333804;0.0001684;47.0021;309.079;191.0889;168.9953;2.3792E-5;-7.6E-7;0;Orbcomm
14.43333835;0.00017;47.0021;307.8021;192.0844;167.9995;2.4444E-5;-7.4E-7;0;Orbcomm
14.43333852;0.0001754;47.0019;303.6518;195.7628;164.3197;2.2181E-5;-8.2E-7;0;Orbcomm
14.43333908;0.0001776;47.0019;302.6941;195.9934;164.089;2.3154E-5;-7.8E-7;0;Orbcomm
14.43334053;0.0001831;47.0018;299.1823;198.8437;161.2375;2.385E-5;-7.6E-7;0;Orbcomm
14.43334153;0.000187;47.0017;296.3091;201.1434;158.9369;2.3743E-5;-7.6E-7;0;Orbcomm
14.4333418;0.0001877;47.0017;295.6705;201.6423;158.4377;2.3759E-5;-7.6E-7;0;Orbcomm
14.43334229;0.0001891;47.0017;294.3936;202.5132;157.5665;2.358E-5;-7.7E-7;0;Orbcomm
14.43334325;0.0001924;47.0016;291.2011;205.2276;154.851;2.3264E-5;-7.8E-7;0;Orbcomm
14.43334338;0.0001926;47.0016;290.8819;205.4595;154.619;2.2865E-5;-7.9E-7;0;Orbcomm
14.43334699;0.0001972;47.0014;285.1355;210.1936;149.883;2.8444E-5;-6.0E-7;0;Orbcomm
14.43334733;0.0001974;47.0014;284.8162;210.4327;149.6438;2.9058E-5;-5.8E-7;0;Orbcomm
14.4333467;0.0002014;47.0013;281.6237;212.8598;147.2156;2.2371E-5;-8.1E-7;0;Orbcomm
14.4333476;0.0002043;47.0012;277.7928;216.0899;143.9842;1.9521E-5;-9.1E-7;0;Orbcomm
14.43334778;0.0002054;47.0012;277.1542;216.4411;143.6329;1.8419E-5;-9.4E-7;0;Orbcomm
14.43335082;0.000217;47.001;265.6612;224.99;135.0804;1.7936E-5;-9.6E-7;0;Orbcomm
14.43335121;0.0002183;47.0009;264.0649;226.2728;133.7971;1.9369E-5;-9.1E-7;0;Orbcomm
14.43335281;0.0002219;47.0009;259.5954;229.5817;130.4869;2.144E-5;-8.4E-7;0;Orbcomm
14.43335419;0.0002267;47.0009;254.8066;232.8346;127.2327;2.0976E-5;-8.6E-7;0;Orbcomm
14.43335533;0.0002284;47.001;250.3371;236.1859;123.8803;2.1148E-5;-8.5E-7;0;Orbcomm
14.43335674;0.0002374;47.001;245.5481;238.6078;121.457;2.1414E-5;-8.4E-7;0;Orbcomm
14.43335817;0.0002421;47.0011;241.0787;241.5248;118.5388;2.0538E-5;-8.7E-7;0;Orbcomm
14.43335925;0.0002451;47.0011;236.6092;244.4653;115.5973;1.7554E-5;-9.7E-7;0;Orbcomm
14.43336007;0.0002454;47.0012;234.3746;246.128;113.9342;1.6484E-5;-1.01E-6;0;Orbcomm
14.4333606;0.0002475;47.0012;232.1399;247.752;112.3097;1.5522E-5;-1.04E-6;0;Orbcomm
14.43336185;0.0002509;47.0012;227.0321;251.2248;108.8359;1.459E-5;-1.07E-6;0;Orbcomm
14.43336185;0.0002509;47.0012;227.0321;251.2248;108.8359;1.459E-5;-1.07E-6;0;Orbcomm
14.43336297;0.0002533;47.0012;222.5628;254.4339;105.6261;1.5279E-5;-1.05E-6;0;Orbcomm
14.43336432;0.0002544;47.0012;217.7742;257.7693;102.2901;1.5912E-5;-1.03E-6;0;Orbcomm
14.43336526;0.0002558;47.0012;213.9433;260.4211;99.638;1.7132E-5;-9.9E-7;0;Orbcomm
14.43336739;0.0002588;47.0014;208.5166;264.6196;95.4389;2.0739E-5;-8.6E-7;0;Orbcomm
14.43336751;0.000258;47.0013;208.1972;264.6899;95.3686;2.1341E-5;-8.4E-7;0;Orbcomm
14.43336804;0.0002572;47.0014;207.2396;265.0391;95.0195;2.2318E-5;-8.1E-7;0;Orbcomm
14.43337062;0.0002584;47.0015;199.8971;270.1777;89.8807;2.5371E-5;-7.1E-7;0;Orbcomm
14.43337255;0.0002596;47.0015;194.7894;273.7405;86.3177;2.4985E-5;-7.2E-7;0;Orbcomm
14.43337457;0.0002595;47.0015;190.0009;277.2621;82.7964;2.5056E-5;-7.2E-7;0;Orbcomm
14.4333762;0.0002591;47.0014;185.5316;280.4055;79.6532;2.4962E-5;-7.2E-7;0;Orbcomm
14.43337731;0.0002592;47.0014;182.3392;282.7529;77.3061;2.4488E-5;-7.4E-7;0;Orbcomm
14.43337772;0.0002588;47.0013;180.7431;283.9322;76.1269;2.323E-5;-7.8E-7;0;Orbcomm
14.43337882;0.0002588;47.0012;177.5507;286.2949;73.7646;2.1808E-5;-8.3E-7;0;Orbcomm
14.43337954;0.0002578;47.0012;175.6354;287.7969;72.2629;2.1096E-5;-8.5E-7;0;Orbcomm
14.43338097;0.0002573;47.0011;171.8045;290.5699;69.4904;2.0868E-5;-8.6E-7;0;Orbcomm
14.43338139;0.0002564;47.001;171.166;291.0927;68.9679;2.1705E-5;-8.3E-7;0;Orbcomm
14.4333831;0.0002557;47.0009;167.0159;294.1444;65.9167;2.4116E-5;-7.5E-7;0;Orbcomm
14.43338487;0.0002536;47.0009;162.5465;297.5262;62.536;2.6401E-5;-6.7E-7;0;Orbcomm
14.43338706;0.0002502;47.0008;157.4385;301.2716;58.7918;2.8086E-5;-6.1E-7;0;Orbcomm
14.43338847;0.0002479;47.0008;153.2883;304.1952;55.8692;2.7207E-5;-6.4E-7;0;Orbcomm
14.43338944;0.0002452;47.0008;148.8189;307.4356;52.63;2.4925E-5;-7.2E-7;0;Orbcomm
14.43338941;0.0002458;47.0008;148.1804;308.0363;52.0294;2.3861E-5;-7.6E-7;0;Orbcomm
14.43339045;0.0002422;47.0008;144.0302;311.0099;49.0571;2.2955E-5;-7.9E-7;0;Orbcomm
14.43339045;0.0002423;47.0008;143.7109;311.2822;48.7849;2.2319E-5;-8.1E-7;0;Orbcomm
14.43339163;0.0002392;47.0008;139.2415;314.7044;45.364;1.9782E-5;-9.0E-7;0;Orbcomm
14.43339266;0.0002355;47.0007;134.772;318.184;41.8859;1.5734E-5;-1.03E-6;0;Orbcomm
14.43339369;0.0002317;47.0007;130.3025;321.723;38.3485;1.3539E-5;-1.11E-6;0;Orbcomm
14.43339525;0.0002273;47.0007;126.1522;324.7889;35.284;1.5772E-5;-1.03E-6;0;Orbcomm
14.43339618;0.0002238;47.0007;122.6404;327.4599;32.6143;1.6064E-5;-1.02E-6;0;Orbcomm
14.43339714;0.0002223;47.0007;121.0442;328.9734;31.1014;1.846E-5;-9.4E-7;0;Orbcomm
14.4333981;0.0002191;47.0007;117.8516;331.4674;28.6085;1.8079E-5;-9.5E-7;0;Orbcomm
14.43339879;0.0002181;47.0007;116.2554;333.0155;27.061;1.9043E-5;-9.2E-7;0;Orbcomm
14.4334005;0.0002142;47.0008;111.7859;336.9499;23.1284;2.0866E-5;-8.6E-7;0;Orbcomm
14.43340192;0.0002101;47.001;107.3165;341.0376;19.0425;2.2831E-5;-7.9E-7;0;Orbcomm
14.43340286;0.0002067;47.0011;104.124;343.8871;16.1942;2.3303E-5;-7.8E-7;0;Orbcomm
14.43340334;0.0002047;47.0012;102.847;344.9501;15.1317;2.3799E-5;-7.6E-7;0;Orbcomm
14.43340426;0.0002003;47.0013;99.3353;347.9727;12.1105;2.2043E-5;-8.2E-7;0;Orbcomm
14.43340527;0.0001973;47.0014;95.8236;351.4055;8.679;2.0342E-5;-8.8E-7;0;Orbcomm
14.43340616;0.000194;47.0015;93.2697;353.7929;6.2926;1.8603E-5;-9.4E-7;0;Orbcomm
14.43340783;0.0001891;47.0017;89.4389;357.2577;2.8292;2.007E-5;-8.9E-7;0;Orbcomm
14.43340885;0.0001838;47.0018;85.6079;0.6869;359.4013;1.8842E-5;-9.3E-7;0;Orbcomm
14.43340925;0.000183;47.0018;84.6503;1.6921;358.3964;1.9249E-5;-9.2E-7;0;Orbcomm
14.43341009;0.0001786;47.002;80.8193;6.0782;354.0119;1.8346E-5;-9.5E-7;0;Orbcomm
14.43341037;0.0001781;47.002;80.1808;6.7534;353.3369;1.8424E-5;-9.4E-7;0;Orbcomm
14.43341136;0.000173;47.0021;75.7115;11.5898;348.5021;1.6103E-5;-1.02E-6;0;Orbcomm
14.43341225;0.000168;47.0023;71.2421;16.6347;343.4587;1.439E-5;-1.08E-6;0;Orbcomm
14.43341313;0.0001631;47.0025;67.092;21.1928;338.9019;1.4968E-5;-1.06E-6;0;Orbcomm
14.43341331;0.0001629;47.0025;66.4536;21.9923;338.1026;1.5122E-5;-1.06E-6;0;Orbcomm
14.43341416;0.0001589;47.0026;62.3035;27.2763;332.8199;1.6443E-5;-1.01E-6;0;Orbcomm
14.43341594;0.0001543;47.0029;57.515;33.3128;326.7849;1.8734E-5;-9.3E-7;0;Orbcomm
14.43341762;0.0001502;47.003;52.7266;39.484;320.6148;1.9046E-5;-9.2E-7;0;Orbcomm
14.43341839;0.0001472;47.0031;49.8535;43.1009;316.9985;1.8379E-5;-9.4E-7;0;Orbcomm
14.43341905;0.0001468;47.0032;48.2574;45.2654;314.8345;1.9669E-5;-9.0E-7;0;Orbcomm
14.43342056;0.0001441;47.0032;45.3843;49.2681;310.8323;2.2985E-5;-7.9E-7;0;Orbcomm
14.43342129;0.0001436;47.0032;44.1075;51.0841;309.0167;2.5149E-5;-7.1E-7;0;Orbcomm
14.43342145;0.0001435;47.0032;43.7882;51.5536;308.5472;2.5213E-5;-7.1E-7;0;Orbcomm
14.43342244;0.0001412;47.0033;40.5959;56.2331;303.8683;2.4221E-5;-7.5E-7;0;Orbcomm
14.43342282;0.0001408;47.0033;39.3191;57.9621;302.1396;2.4245E-5;-7.5E-7;0;Orbcomm
14.43342406;0.000139;47.0033;36.1267;62.6016;297.5005;2.3386E-5;-7.7E-7;0;Orbcomm
14.43342581;0.0001373;47.0033;31.6575;68.7915;291.3111;2.3139E-5;-7.8E-7;0;Orbcomm
14.43342644;0.0001374;47.0033;30.3806;70.7478;289.355;2.4432E-5;-7.4E-7;0;Orbcomm
14.43342749;0.0001358;47.0033;26.869;76.1545;283.9486;2.3532E-5;-7.7E-7;0;Orbcomm
14.43342811;0.0001361;47.0033;25.5921;77.9697;282.1335;2.4817E-5;-7.3E-7;0;Orbcomm
14.43342922;0.0001354;47.0033;22.3997;82.9255;277.1778;2.5012E-5;-7.2E-7;0;Orbcomm
14.433431;0.000136;47.0034;17.9304;89.9272;270.1764;2.5222E-5;-7.1E-7;0;Orbcomm
14.43343108;0.000136;47.0033;17.6111;90.3622;269.7413;2.5329E-5;-7.1E-7;0;Orbcomm
14.43343255;0.0001366;47.0034;13.4611;96.5055;263.598;2.3667E-5;-7.6E-7;0;Orbcomm
14.43343299;0.0001374;47.0033;12.1842;98.4249;261.6787;2.3902E-5;-7.6E-7;0;Orbcomm
14.43343404;0.0001383;47.0034;8.6726;103.8548;256.2486;2.2629E-5;-8.0E-7;0;Orbcomm
14.43343444;0.0001389;47.0034;7.3957;105.4868;254.6165;2.2726E-5;-8.0E-7;0;Orbcomm
14.43343533;0.0001405;47.0034;4.2033;110.5429;249.5601;2.2302E-5;-8.1E-7;0;Orbcomm
14.43343675;0.000144;47.0033;359.4148;117.6687;242.4339;2.1916E-5;-8.2E-7;0;Orbcomm
14.43343708;0.0001446;47.0033;358.4572;118.7806;241.3219;2.1931E-5;-8.2E-7;0;Orbcomm
14.43343816;0.0001475;47.0032;354.9456;124.1476;235.9543;2.0296E-5;-8.8E-7;0;Orbcomm
14.43343842;0.0001479;47.0032;353.988;125.1128;234.989;2.017E-5;-8.8E-7;0;Orbcomm
14.43343952;0.000151;47.0031;350.1571;130.4252;229.6759;1.9321E-5;-9.1E-7;0;Orbcomm
14.43344044;0.0001537;47.003;346.9647;134.7663;225.3342;1.9938E-5;-8.9E-7;0;Orbcomm
14.43344083;0.0001556;47.003;345.6877;136.6146;223.4856;2.0058E-5;-8.9E-7;0;Orbcomm
14.43344259;0.0001614;47.0029;341.2184;142.6118;217.4874;2.2606E-5;-8.0E-7;0;Orbcomm
14.43344292;0.0001623;47.0029;340.5799;143.3184;216.7807;2.3387E-5;-7.7E-7;0;Orbcomm
14.43344413;0.0001667;47.0028;336.4298;148.3138;211.7842;2.2901E-5;-7.9E-7;0;Orbcomm
14.4334442;0.0001661;47.0028;336.1105;148.5404;211.5575;2.3095E-5;-7.8E-7;0;Orbcomm
14.43344544;0.0001712;47.0027;331.6411;153.9298;206.1668;2.1638E-5;-8.3E-7;0;Orbcomm
14.43344566;0.000172;47.0027;331.0027;154.6582;205.4382;2.1355E-5;-8.4E-7;0;Orbcomm
14.43344667;0.000178;47.0027;326.8525;159.6029;200.4921;2.0626E-5;-8.7E-7;0;Orbcomm
14.43344762;0.0001846;47.0027;322.7023;164.497;195.5966;1.9928E-5;-8.9E-7;0;Orbcomm
14.43344764;0.0001845;47.0027;322.3831;164.7437;195.3498;1.9864E-5;-8.9E-7;0;Orbcomm
14.43344798;0.000189;47.0027;317.9138;169.2786;190.8134;1.6255E-5;-1.02E-6;0;Orbcomm
14.43344803;0.0001892;47.0027;317.5946;169.5451;190.5468;1.6061E-5;-1.02E-6;0;Orbcomm
14.4334484;0.0001917;47.0027;315.3599;172.1008;187.9902;1.4387E-5;-1.08E-6;0;Orbcomm
14.43344872;0.0002018;47.0026;308.9752;178.7079;181.3806;8.6122E-6;-1.28E-6;0;Orbcomm
